{
  "type": "FeatureCollection",
  "features": [
    {
      "type": "Feature",
      "properties": {
        "norad_id": 33860,
        "name": "IRIDIUM 33 DEB",
        "group": "iridium-33-debris",
        "lat": -18.96287541389779,
        "lon": -151.03978832053872,
        "alt_km": 679.9263614931851,
        "timestamp": "2025-12-11T15:53:39.928194+00:00",
        "meta_object_name": "IRIDIUM 33 DEB",
        "meta_object_id": "1997-051AD",
        "meta_epoch": "2025-12-11T03:48:48.164256",
        "meta_mean_motion": 14.67334001,
        "meta_eccentricity": 0.00076792,
        "meta_inclination": 86.3835,
        "meta_ra_of_asc_node": 27.9377,
        "meta_arg_of_pericenter": 3.2947,
        "meta_mean_anomaly": 58.2985,
        "meta_ephemeris_type": 0,
        "meta_classification_type": "U",
        "meta_norad_cat_id": 33860,
        "meta_element_set_no": 999,
        "meta_rev_at_epoch": 88699,
        "meta_bstar": 0.0018344014,
        "meta_mean_motion_dot": 0.00010386,
        "meta_mean_motion_ddot": 0,
        "tle_line1": "1 33860U 97051AD  25345.15889079  .00010386  00000+0  18344-2 0  9997",
        "tle_line2": "2 33860  86.3835  27.9377 0007679   3.2947  58.2985 14.67334001886990"
      },
      "geometry": {
        "type": "Point",
        "coordinates": [
          -151.03978832053872,
          -18.96287541389779
        ]
      }
    },
    {
      "type": "Feature",
      "properties": {
        "norad_id": 33862,
        "name": "IRIDIUM 33 DEB",
        "group": "iridium-33-debris",
        "lat": -46.2723942076294,
        "lon": -138.23032134064835,
        "alt_km": 703.4379481453379,
        "timestamp": "2025-12-11T15:53:39.928205+00:00",
        "meta_object_name": "IRIDIUM 33 DEB",
        "meta_object_id": "1997-051AF",
        "meta_epoch": "2025-12-11T03:41:34.520928",
        "meta_mean_motion": 14.69430162,
        "meta_eccentricity": 0.0053523,
        "meta_inclination": 86.4089,
        "meta_ra_of_asc_node": 38.2294,
        "meta_arg_of_pericenter": 74.4791,
        "meta_mean_anomaly": 343.9034,
        "meta_ephemeris_type": 0,
        "meta_classification_type": "U",
        "meta_norad_cat_id": 33862,
        "meta_element_set_no": 999,
        "meta_rev_at_epoch": 88800,
        "meta_bstar": 0.0020932779,
        "meta_mean_motion_dot": 0.00012698,
        "meta_mean_motion_ddot": 0,
        "tle_line1": "1 33862U 97051AF  25345.15387177  .00012698  00000+0  20933-2 0  9996",
        "tle_line2": "2 33862  86.4089  38.2294 0053523  74.4791 343.9034 14.69430162888003"
      },
      "geometry": {
        "type": "Point",
        "coordinates": [
          -138.23032134064835,
          -46.2723942076294
        ]
      }
    },
    {
      "type": "Feature",
      "properties": {
        "norad_id": 33866,
        "name": "IRIDIUM 33 DEB",
        "group": "iridium-33-debris",
        "lat": 78.0927261837006,
        "lon": -104.38093362032183,
        "alt_km": 762.9521950525022,
        "timestamp": "2025-12-11T15:53:39.928217+00:00",
        "meta_object_name": "IRIDIUM 33 DEB",
        "meta_object_id": "1997-051AK",
        "meta_epoch": "2025-12-11T07:07:53.860224",
        "meta_mean_motion": 14.25268294,
        "meta_eccentricity": 0.01143657,
        "meta_inclination": 86.2997,
        "meta_ra_of_asc_node": 93.6458,
        "meta_arg_of_pericenter": 165.9811,
        "meta_mean_anomaly": 224.2624,
        "meta_ephemeris_type": 0,
        "meta_classification_type": "U",
        "meta_norad_cat_id": 33866,
        "meta_element_set_no": 999,
        "meta_rev_at_epoch": 86790,
        "meta_bstar": 0.001200381,
        "meta_mean_motion_dot": 3.042e-05,
        "meta_mean_motion_ddot": 0,
        "tle_line1": "1 33866U 97051AK  25345.29715116  .00003042  00000+0  12004-2 0  9996",
        "tle_line2": "2 33866  86.2997  93.6458 0114365 165.9811 224.2624 14.25268294867900"
      },
      "geometry": {
        "type": "Point",
        "coordinates": [
          -104.38093362032183,
          78.0927261837006
        ]
      }
    },
    {
      "type": "Feature",
      "properties": {
        "norad_id": 33867,
        "name": "IRIDIUM 33 DEB",
        "group": "iridium-33-debris",
        "lat": -51.82650424868093,
        "lon": -13.974195421574768,
        "alt_km": 385.7200604816808,
        "timestamp": "2025-12-11T15:53:39.928227+00:00",
        "meta_object_name": "IRIDIUM 33 DEB",
        "meta_object_id": "1997-051AL",
        "meta_epoch": "2025-12-11T00:46:09.488064",
        "meta_mean_motion": 15.6435787,
        "meta_eccentricity": 0.00132058,
        "meta_inclination": 86.364,
        "meta_ra_of_asc_node": 350.9911,
        "meta_arg_of_pericenter": 90.6503,
        "meta_mean_anomaly": 269.6278,
        "meta_ephemeris_type": 0,
        "meta_classification_type": "U",
        "meta_norad_cat_id": 33867,
        "meta_element_set_no": 999,
        "meta_rev_at_epoch": 89484,
        "meta_bstar": 0.0092293359,
        "meta_mean_motion_dot": 0.00975243,
        "meta_mean_motion_ddot": 0,
        "tle_line1": "1 33867U 97051AL  25345.03205426  .00975243  00000+0  92293-2 0  9996",
        "tle_line2": "2 33867  86.3640 350.9911 0013205  90.6503 269.6278 15.64357870894847"
      },
      "geometry": {
        "type": "Point",
        "coordinates": [
          -13.974195421574768,
          -51.82650424868093
        ]
      }
    },
    {
      "type": "Feature",
      "properties": {
        "norad_id": 33870,
        "name": "IRIDIUM 33 DEB",
        "group": "iridium-33-debris",
        "lat": 58.438909108360264,
        "lon": -127.20221086529327,
        "alt_km": 726.1275714605181,
        "timestamp": "2025-12-11T15:53:39.928238+00:00",
        "meta_object_name": "IRIDIUM 33 DEB",
        "meta_object_id": "1997-051AP",
        "meta_epoch": "2025-12-11T05:37:02.620704",
        "meta_mean_motion": 14.45838487,
        "meta_eccentricity": 0.00213236,
        "meta_inclination": 86.3744,
        "meta_ra_of_asc_node": 58.9059,
        "meta_arg_of_pericenter": 182.8727,
        "meta_mean_anomaly": 231.2371,
        "meta_ephemeris_type": 0,
        "meta_classification_type": "U",
        "meta_norad_cat_id": 33870,
        "meta_element_set_no": 999,
        "meta_rev_at_epoch": 88115,
        "meta_bstar": 0.0012319282,
        "meta_mean_motion_dot": 4.403e-05,
        "meta_mean_motion_ddot": 0,
        "tle_line1": "1 33870U 97051AP  25345.23405811  .00004403  00000+0  12319-2 0  9994",
        "tle_line2": "2 33870  86.3744  58.9059 0021323 182.8727 231.2371 14.45838487881151"
      },
      "geometry": {
        "type": "Point",
        "coordinates": [
          -127.20221086529327,
          58.438909108360264
        ]
      }
    },
    {
      "type": "Feature",
      "properties": {
        "norad_id": 33881,
        "name": "IRIDIUM 33 DEB",
        "group": "iridium-33-debris",
        "lat": -51.1384360044979,
        "lon": 102.71221850105131,
        "alt_km": 739.692849108108,
        "timestamp": "2025-12-11T15:53:39.928249+00:00",
        "meta_object_name": "IRIDIUM 33 DEB",
        "meta_object_id": "1997-051BA",
        "meta_epoch": "2025-12-10T19:23:39.783840",
        "meta_mean_motion": 14.56512734,
        "meta_eccentricity": 0.00614461,
        "meta_inclination": 86.3863,
        "meta_ra_of_asc_node": 107.5816,
        "meta_arg_of_pericenter": 180.8783,
        "meta_mean_anomaly": 331.4545,
        "meta_ephemeris_type": 0,
        "meta_classification_type": "U",
        "meta_norad_cat_id": 33881,
        "meta_element_set_no": 999,
        "meta_rev_at_epoch": 87472,
        "meta_bstar": 0.0031554403,
        "meta_mean_motion_dot": 0.00014437,
        "meta_mean_motion_ddot": 0,
        "tle_line1": "1 33881U 97051BA  25344.80809935  .00014437  00000+0  31554-2 0  9993",
        "tle_line2": "2 33881  86.3863 107.5816 0061446 180.8783 331.4545 14.56512734874724"
      },
      "geometry": {
        "type": "Point",
        "coordinates": [
          102.71221850105131,
          -51.1384360044979
        ]
      }
    },
    {
      "type": "Feature",
      "properties": {
        "norad_id": 33884,
        "name": "IRIDIUM 33 DEB",
        "group": "iridium-33-debris",
        "lat": 5.742964752912039,
        "lon": -170.06136815622233,
        "alt_km": 646.1262927574526,
        "timestamp": "2025-12-11T15:53:39.928259+00:00",
        "meta_object_name": "IRIDIUM 33 DEB",
        "meta_object_id": "1997-051BD",
        "meta_epoch": "2025-12-11T02:20:45.458304",
        "meta_mean_motion": 14.77374532,
        "meta_eccentricity": 0.00098702,
        "meta_inclination": 86.3697,
        "meta_ra_of_asc_node": 10.5592,
        "meta_arg_of_pericenter": 330.1286,
        "meta_mean_anomaly": 83.5788,
        "meta_ephemeris_type": 0,
        "meta_classification_type": "U",
        "meta_norad_cat_id": 33884,
        "meta_element_set_no": 999,
        "meta_rev_at_epoch": 88823,
        "meta_bstar": 0.0021763736,
        "meta_mean_motion_dot": 0.00015524,
        "meta_mean_motion_ddot": 0,
        "tle_line1": "1 33884U 97051BD  25345.09774836  .00015524  00000+0  21764-2 0  9999",
        "tle_line2": "2 33884  86.3697  10.5592 0009870 330.1286  83.5788 14.77374532888237"
      },
      "geometry": {
        "type": "Point",
        "coordinates": [
          -170.06136815622233,
          5.742964752912039
        ]
      }
    }
  ]
}